[{"OBJECT_NAME":"TOMORROW-S7","OBJECT_ID":"2025-081B","EPOCH":"2026-03-09T15:35:01.135680","MEAN_MOTION":14.99242141,"ECCENTRICITY":4.629e-5,"INCLINATION":45.3909,"RA_OF_ASC_NODE":132.557,"ARG_OF_PERICENTER":121.9907,"MEAN_ANOMALY":238.1016,"EPHEMERIS_TYPE":0,"CLASSIFICATION_TYPE":"U","NORAD_CAT_ID":63631,"ELEMENT_SET_NO":999,"REV_AT_EPOCH":4823,"BSTAR":0.00019092565,"MEAN_MOTION_DOT":2.135e-5,"MEAN_MOTION_DDOT":0},{"OBJECT_NAME":"STARLINK-34354","OBJECT_ID":"2025-123Z","EPOCH":"2026-03-09T17:12:26.174304","MEAN_MOTION":14.98333546,"ECCENTRICITY":0.0003151,"INCLINATION":70.0033,"RA_OF_ASC_NODE":194.3444,"ARG_OF_PERICENTER":262.0506,"MEAN_ANOMALY":98.0295,"EPHEMERIS_TYPE":0,"CLASSIFICATION_TYPE":"U","NORAD_CAT_ID":64314,"ELEMENT_SET_NO":999,"REV_AT_EPOCH":4162,"BSTAR":0.00017973123,"MEAN_MOTION_DOT":2.052e-5,"MEAN_MOTION_DDOT":0}]
