TOMORROW-S7             
1 63631U 25081B   26068.64931870  .00002135  00000+0  19093-3 0  9990
2 63631  45.3909 132.5570 0000463 121.9907 238.1016 14.99242141 48231
STARLINK-34354          
1 64314U 25123Z   26068.71696959  .00002052  00000+0  17973-3 0  9993
2 64314  70.0033 194.3444 0003151 262.0506  98.0295 14.98333546 41625
